[{"OBJECT_NAME":"STARLINK-1559","OBJECT_ID":"2020-055BC","EPOCH":"2026-03-09T05:36:23.522976","MEAN_MOTION":15.29461733,"ECCENTRICITY":0.0004229,"INCLINATION":53.0254,"RA_OF_ASC_NODE":76.0659,"ARG_OF_PERICENTER":33.971,"MEAN_ANOMALY":326.1559,"EPHEMERIS_TYPE":0,"CLASSIFICATION_TYPE":"U","NORAD_CAT_ID":46077,"ELEMENT_SET_NO":999,"REV_AT_EPOCH":30951,"BSTAR":0.0014778793,"MEAN_MOTION_DOT":0.00042685,"MEAN_MOTION_DDOT":0},{"OBJECT_NAME":"STARLINK-2031","OBJECT_ID":"2021-012AE","EPOCH":"2026-03-09T22:49:12.010080","MEAN_MOTION":15.30088905,"ECCENTRICITY":0.0001163,"INCLINATION":53.1588,"RA_OF_ASC_NODE":48.339,"ARG_OF_PERICENTER":82.9561,"MEAN_ANOMALY":277.1572,"EPHEMERIS_TYPE":0,"CLASSIFICATION_TYPE":"U","NORAD_CAT_ID":47648,"ELEMENT_SET_NO":999,"REV_AT_EPOCH":28034,"BSTAR":0.0019887942,"MEAN_MOTION_DOT":0.00058807,"MEAN_MOTION_DDOT":0}]
